[{"OBJECT_NAME":"STARLINK-30172","OBJECT_ID":"2023-102G","EPOCH":"2026-03-09T22:00:01.999584","MEAN_MOTION":15.15135247,"ECCENTRICITY":5.031e-5,"INCLINATION":42.9997,"RA_OF_ASC_NODE":246.8871,"ARG_OF_PERICENTER":241.8754,"MEAN_ANOMALY":320.5402,"EPHEMERIS_TYPE":0,"CLASSIFICATION_TYPE":"U","NORAD_CAT_ID":57410,"ELEMENT_SET_NO":999,"REV_AT_EPOCH":537,"BSTAR":0.0054662589,"MEAN_MOTION_DOT":0.00105633,"MEAN_MOTION_DDOT":0},{"OBJECT_NAME":"CZ-4C R\/B","OBJECT_ID":"2024-186B","EPOCH":"2026-03-09T22:51:12.491424","MEAN_MOTION":15.07425891,"ECCENTRICITY":0.00475116,"INCLINATION":97.8722,"RA_OF_ASC_NODE":96.5934,"ARG_OF_PERICENTER":122.4234,"MEAN_ANOMALY":238.1602,"EPHEMERIS_TYPE":0,"CLASSIFICATION_TYPE":"U","NORAD_CAT_ID":61572,"ELEMENT_SET_NO":999,"REV_AT_EPOCH":7672,"BSTAR":0.00027865777,"MEAN_MOTION_DOT":4.262e-5,"MEAN_MOTION_DDOT":0}]
